ONEWEB-0697             
1 61603U 24188K   25303.87659359  .00000587  00000+0  16194-2 0  9996
2 61603  87.8840  66.7399 0002452  95.9756 264.1652 13.11418608 54397
ONEWEB-0698             
1 61604U 24188L   25303.77824942  .00000103  00000+0  25361-3 0  9999
2 61604  87.8839  66.7742 0002689 113.3280 246.8131 13.11420662 54401
ONEWEB-0699             
1 61605U 24188M   25303.83760418  .00000719  00000+0  20245-2 0  9992
2 61605  87.8788  81.9769 0002252  96.3602 263.7782 13.10373759 53274
ONEWEB-0700             
1 61606U 24188N   25303.83926238  .00000792  00000+0  22327-2 0  9991
2 61606  87.8791  81.8596 0002132  80.7157 279.4212 13.10372477 53262
ONEWEB-0701             
1 61607U 24188P   25303.93221372  .00000222  00000+0  59895-3 0  9999
2 61607  87.8780  81.9603 0002442  95.9175 264.2231 13.10370469 53287
ONEWEB-0702             
1 61608U 24188Q   25303.90032811 -.00000255  00000+0 -75451-3 0  9999
2 61608  87.8793  66.6537 0002504  89.9468 270.1946 13.11414399 54434
ONEWEB-0704             
1 61609U 24188R   25303.92059988  .00000702  00000+0  19738-2 0  9996
2 61609  87.8796  81.9219 0002502  85.0244 275.1168 13.10372545 53268
ONEWEB-0705             
1 61610U 24188S   25303.92557382  .00000548  00000+0  15325-2 0  9995
2 61610  87.8781  81.9482 0002149  63.0988 297.0359 13.10372905 45439
